NORAD_CAT_ID,OBJECT_NAME,OBJECT_TYPE,EPOCH,MEAN_MOTION,ECCENTRICITY,INCLINATION,RA_OF_ASC_NODE,ARG_OF_PERICENTER,MEAN_ANOMALY,BSTAR,MEAN_MOTION_DOT,MEAN_MOTION_DDOT,TLE_LINE0,TLE_LINE1,TLE_LINE2,SEMIMAJOR_AXIS,PERIOD,APOGEE,PERIGEE,DECAYED
49153.0,STARLINK-3072,PAYLOAD,2023-02-27 14:54:42,14.98335916,0.000307,70.0017,163.2465,261.5109,98.5702,0.00014061,1.585e-05,0.0,0 STARLINK-3072,1 49153U 21082Z   23058.62132487  .00001585  00000-0  14061-3 0  9990,2 49153  70.0017 163.2465 0003070 261.5109  98.5702 14.98335916 82493,6950.175,96.107,574.173,569.906,0.0
49153.0,STARLINK-3072,PAYLOAD,2023-02-28 05:19:54,14.983428,0.0002906,70.0028,161.7316,266.7166,93.366,0.00027351,3.173e-05,0.0,0 STARLINK-3072,1 49153U 21082Z   23059.22216007  .00003173  00000-0  27351-3 0  9999,2 49153  70.0028 161.7316 0002906 266.7166  93.3660 14.98342800 81361,6950.153,96.106,574.038,569.999,0.0
49153.0,STARLINK-3072,PAYLOAD,2023-02-28 13:20:34,14.98341209,0.0002822,70.0026,160.8892,263.801,96.2828,0.00019246,2.205e-05,0.0,0 STARLINK-3072,1 49153U 21082Z   23059.55595885  .00002205  00000-0  19246-3 0  9998,2 49153  70.0026 160.8892 0002822 263.8010  96.2828 14.98341209 82632,6950.158,96.106,573.985,570.062,0.0
49153.0,STARLINK-3072,PAYLOAD,2023-02-28 14:56:42,14.9834244,0.0002772,70.0027,160.7209,263.7843,96.3001,0.00022941,2.646e-05,0.0,0 STARLINK-3072,1 49153U 21082Z   23059.62271814  .00002646  00000-0  22941-3 0  9994,2 49153  70.0027 160.7209 0002772 263.7843  96.3001 14.98342440 82644,6950.154,96.106,573.946,570.093,0.0
49153.0,STARLINK-3072,PAYLOAD,2023-03-01 05:21:56,14.98326107,0.0001952,70.0051,159.2073,280.5577,79.5362,9.1159e-05,9.95e-06,0.0,0 STARLINK-3072,1 49153U 21082Z   23060.22356888  .00000995  00000-0  91159-4 0  9990,2 49153  70.0051 159.2073 0001952 280.5577  79.5362 14.98326107 81513,6950.205,96.107,573.427,570.713,0.0
49153.0,STARLINK-3072,PAYLOAD,2023-03-01 11:46:29,14.98305121,0.0002869,70.0023,158.5334,271.6297,88.4533,-0.00045747,-5.544e-05,0.0,0 STARLINK-3072,1 49153U 21082Z   23060.49061706 -.00005544  00000-0 -45747-3 0  9999,2 49153  70.0023 158.5334 0002869 271.6297  88.4533 14.98305121 81558,6950.27,96.109,574.129,570.141,0.0
49153.0,STARLINK-3072,PAYLOAD,2023-03-01 13:22:37,14.98304699,0.0002833,70.0027,158.3655,271.6402,88.4432,-0.00051258,-6.199e-05,0.0,0 STARLINK-3072,1 49153U 21082Z   23060.55737795 -.00006199  00000-0 -51258-3 0  9995,2 49153  70.0027 158.3655 0002833 271.6402  88.4432 14.98304699 82788,6950.271,96.109,574.105,570.167,0.0
49153.0,STARLINK-3072,PAYLOAD,2023-03-02 16:36:54,14.98342266,0.0003122,70.0028,155.5045,279.2823,80.7983,0.0015415,0.00018354,0.0,0 STARLINK-3072,1 49153U 21082Z   23061.69230197  .00018354  00000-0  15415-2 0  9993,2 49153  70.0028 155.5045 0003122 279.2823  80.7983 14.98342266 82951,6950.155,96.106,574.19,569.85,0.0
49153.0,STARLINK-3072,PAYLOAD,2023-03-03 08:38:14,14.9837109,0.000311,70.0026,153.8212,279.3451,80.7356,0.0018344,0.00021887,0.0,0 STARLINK-3072,1 49153U 21082Z   23062.35989104  .00021887  00000-0  18344-2 0  9995,2 49153  70.0026 153.8212 0003110 279.3451  80.7356 14.98371090 81838,6950.066,96.104,574.092,569.769,0.0
49153.0,STARLINK-3072,PAYLOAD,2023-03-03 10:14:22,14.98372189,0.0003108,70.0028,153.6527,280.0293,80.0515,0.0019583,0.00023377,0.0,0 STARLINK-3072,1 49153U 21082Z   23062.42664957  .00023377  00000-0  19583-2 0  9991,2 49153  70.0028 153.6527 0003108 280.0293  80.0515 14.98372189 83064,6950.062,96.104,574.088,569.767,0.0
49153.0,STARLINK-3072,PAYLOAD,2023-03-03 16:38:54,14.9838377,0.0003089,70.0027,152.9794,279.7591,80.3219,0.001964,0.00023452,0.0,0 STARLINK-3072,1 49153U 21082Z   23062.69368101  .00023452  00000-0  19640-2 0  9990,2 49153  70.0027 152.9794 0003089 279.7591  80.3219 14.98383770 83102,6950.027,96.104,574.038,569.745,0.0
49153.0,STARLINK-3072,PAYLOAD,2023-03-03 23:03:26,14.98360711,0.0001938,70.0045,152.3024,278.4988,81.5951,0.00086245,0.0001022,0.0,0 STARLINK-3072,1 49153U 21082Z   23062.96072205  .00010220  00000-0  86245-3 0  9992,2 49153  70.0045 152.3024 0001938 278.4988  81.5951 14.98360711 81923,6950.098,96.105,573.31,570.616,0.0
49153.0,STARLINK-3072,PAYLOAD,2023-03-04 07:04:06,14.9834729,0.0002561,70.0058,151.4686,266.2661,93.8205,-0.00066271,-7.995e-05,0.0,0 STARLINK-3072,1 49153U 21082Z   23063.29451825 -.00007995  00000-0 -66271-3 0  9992,2 49153  70.0058 151.4686 0002561 266.2661  93.8205 14.98347290 81977,6950.139,96.106,573.784,570.224,0.0
49153.0,STARLINK-3072,PAYLOAD,2023-03-04 10:16:22,14.98339542,0.0002642,70.0055,151.1321,264.7231,95.3627,-0.00045072,-5.468e-05,0.0,0 STARLINK-3072,1 49153U 21082Z   23063.42804063 -.00005468  00000-0 -45072-3 0  9992,2 49153  70.0055 151.1321 0002642 264.7231  95.3627 14.98339542 83218,6950.163,96.106,573.865,570.192,0.0
49153.0,STARLINK-3072,PAYLOAD,2023-03-04 11:52:30,14.98334278,0.000329,70.0025,150.96,270.052,90.0262,-0.00032805,-4.006e-05,0.0,0 STARLINK-3072,1 49153U 21082Z   23063.49480303 -.00004006  00000-0 -32805-3 0  9993,2 49153  70.0025 150.9600 0003290 270.0520  90.0262 14.98334278 82007,6950.18,96.107,574.331,569.758,0.0
49153.0,STARLINK-3072,PAYLOAD,2023-03-04 15:04:47,14.98324136,0.0003151,70.0031,150.6245,267.0016,93.0783,-0.00056006,-6.768e-05,0.0,0 STARLINK-3072,1 49153U 21082Z   23063.62832753 -.00006768  00000-0 -56006-3 0  9994,2 49153  70.0031 150.6245 0003151 267.0016  93.0783 14.98324136 82023,6950.211,96.107,574.266,569.886,0.0
49153.0,STARLINK-3072,PAYLOAD,2023-03-05 08:42:16,14.98329645,0.0003258,70.0026,148.7723,270.0874,89.9912,0.00013145,1.476e-05,0.0,0 STARLINK-3072,1 49153U 21082Z   23064.36269091  .00001476  00000-0  13145-3 0  9991,2 49153  70.0026 148.7723 0003258 270.0874  89.9912 14.98329645 82130,6950.194,96.107,574.323,569.795,0.0
49153.0,STARLINK-3072,PAYLOAD,2023-03-06 05:32:00,14.98353984,0.0002742,70.0032,146.5822,270.7496,89.3349,0.00095847,0.00011369,0.0,0 STARLINK-3072,1 49153U 21082Z   23065.23056628  .00011369  00000-0  95847-3 0  9999,2 49153  70.0032 146.5822 0002742 270.7496  89.3349 14.98353984 82262,6950.119,96.105,573.889,570.078,0.0
49153.0,STARLINK-3072,PAYLOAD,2023-03-06 15:08:48,14.98360204,0.0003061,70.0024,145.5738,272.7543,87.3266,0.0009144,0.00010843,0.0,0 STARLINK-3072,1 49153U 21082Z   23065.63111827  .00010843  00000-0  91440-3 0  9997,2 49153  70.0024 145.5738 0003061 272.7543  87.3266 14.98360204 83549,6950.099,96.105,574.092,569.837,0.0
49153.0,STARLINK-3072,PAYLOAD,2023-03-07 08:46:17,14.98333002,0.0003079,70.002,143.721,267.7671,92.3136,-1.5689e-05,-2.8e-06,0.0,0 STARLINK-3072,1 49153U 21082Z   23066.36548126 -.00000280  00000-0 -15689-4 0  9992,2 49153  70.0020 143.7210 0003079 267.7671  92.3136 14.98333002 82430,6950.184,96.107,574.189,569.909,0.0
49153.0,STARLINK-3072,PAYLOAD,2023-03-07 10:22:25,14.9833618,0.0003036,70.0021,143.5527,269.4253,90.6558,4.1724e-05,4.05e-06,0.0,0 STARLINK-3072,1 49153U 21082Z   23066.43224171  .00000405  00000-0  41724-4 0  9997,2 49153  70.0021 143.5527 0003036 269.4253  90.6558 14.98336180 83663,6950.174,96.107,574.149,569.929,0.0
49153.0,STARLINK-3072,PAYLOAD,2023-03-08 10:24:26,14.98335732,0.0003002,70.0018,141.0288,270.9929,89.0886,0.00029397,3.417e-05,0.0,0 STARLINK-3072,1 49153U 21082Z   23067.43364365  .00003417  00000-0  29397-3 0  9995,2 49153  70.0018 141.0288 0003002 270.9929  89.0886 14.98335732 82595,6950.175,96.107,574.127,569.954,0.0
49153.0,STARLINK-3072,PAYLOAD,2023-03-08 21:37:23,14.98344137,0.0003,70.0018,139.8511,270.6578,89.4237,0.00069834,8.252e-05,0.0,0 STARLINK-3072,1 49153U 21082Z   23067.90096242  .00008252  00000-0  69834-3 0  9995,2 49153  70.0018 139.8511 0003000 270.6578  89.4237 14.98344137 83880,6950.149,96.106,574.099,569.929,0.0
49153.0,STARLINK-3072,PAYLOAD,2023-03-09 12:02:35,14.98342153,0.0002642,70.0024,138.3375,263.6169,96.4689,0.00044043,5.168e-05,0.0,0 STARLINK-3072,1 49153U 21082Z   23068.50180017  .00005168  00000-0  44043-3 0  9994,2 49153  70.0024 138.3375 0002642 263.6169  96.4689 14.98342153 82758,6950.155,96.106,573.857,570.184,0.0
49153.0,STARLINK-3072,PAYLOAD,2023-03-09 21:39:23,14.98345145,0.0002561,70.0025,137.3267,273.4809,86.6057,0.00043909,5.152e-05,0.0,0 STARLINK-3072,1 49153U 21082Z   23068.90235786  .00005152  00000-0  43909-3 0  9995,2 49153  70.0025 137.3267 0002561 273.4809  86.6057 14.98345145 84035,6950.146,96.106,573.791,570.231,0.0
49153.0,STARLINK-3072,PAYLOAD,2023-03-10 10:28:28,14.98337335,0.0002712,70.0021,135.9815,270.6983,89.3865,0.00018752,2.146e-05,0.0,0 STARLINK-3072,1 49153U 21082Z   23069.43643700  .00002146  00000-0  18752-3 0  9991,2 49153  70.0021 135.9815 0002712 270.6983  89.3865 14.98337335 82895,6950.17,96.107,573.92,570.15,0.0
49153.0,STARLINK-3072,PAYLOAD,2023-03-10 21:41:24,14.98329831,0.000286,70.0012,134.8016,270.9742,89.1089,-4.2535e-05,-6e-06,0.0,0 STARLINK-3072,1 49153U 21082Z   23069.90376008 -.00000600  00000-0 -42535-4 0  9999,2 49153  70.0012 134.8016 0002860 270.9742  89.1089 14.98329831 84188,6950.193,96.107,574.046,570.071,0.0
49153.0,STARLINK-3072,PAYLOAD,2023-03-11 04:05:57,14.98326404,0.0002857,70.0011,134.1283,270.9765,89.1066,-5.3238e-05,-7.28e-06,0.0,0 STARLINK-3072,1 49153U 21082Z   23070.17080218 -.00000728  00000-0 -53238-4 0  9998,2 49153  70.0011 134.1283 0002857 270.9765  89.1066 14.98326404 83005,6950.204,96.107,574.055,570.083,0.0
49153.0,STARLINK-3072,PAYLOAD,2023-03-11 13:42:45,14.98329207,0.000273,70.0006,133.1187,262.5695,97.5154,-3.6795e-05,-5.32e-06,0.0,0 STARLINK-3072,1 49153U 21082Z   23070.57136531 -.00000532  00000-0 -36795-4 0  9994,2 49153  70.0006 133.1187 0002730 262.5695  97.5154 14.98329207 84286,6950.195,96.107,573.958,570.163,0.0
49153.0,STARLINK-3072,PAYLOAD,2023-03-12 13:44:47,14.98328968,0.0002942,69.9998,130.593,270.3621,89.7201,3.623e-05,3.39e-06,0.0,0 STARLINK-3072,1 49153U 21082Z   23071.57276700  .00000339  00000-0  36230-4 0  9995,2 49153  69.9998 130.5930 0002942 270.3621  89.7201 14.98328968 83212,6950.196,96.107,574.106,570.016,0.0
